EAGLEEYE                
1 60508U 24149AS  26177.78389119  .00107308  00000+0  78997-3 0  9999
2 60508  97.3722 271.6628 0004864 216.5781 143.5152 15.72722206104443
FLOCK 4BE-29            
1 60509U 24149AT  26177.77000178  .00016860  00000+0  36601-3 0  9992
2 60509  97.3818 263.7885 0001890 231.0789 129.0292 15.44444112103891
TRANSPORTER-11 OBJECT AU
1 60510U 24149AU  26177.47762583  .00015137  00000+0  37538-3 0  9992
2 60510  97.3734 261.2729 0002570 237.7489 122.3508 15.40467866103743
FLOCK 4BE-2             
1 60511U 24149AV  26177.72317309  .00058926  00000+0  91600-3 0  9996
2 60511  97.3837 265.2964 0004168 221.5662 138.5275 15.53741263103988
FLOCK 4BE-13            
1 60512U 24149AW  26177.76011807  .00013741  00000+0  32272-3 0  9991
2 60512  97.3725 262.2720 0003561 216.8541 143.2462 15.42134631103840
FLOCK 4BE-27            
1 60513U 24149AX  26177.78021520  .00009527  00000+0  28642-3 0  9990
2 60513  97.3830 259.6362 0002379 259.6186 100.4789 15.34607514103614
FLOCK 4BE-9             
1 60514U 24149AY  26177.76596504  .00015382  00000+0  37399-3 0  9993
2 60514  97.3797 262.1314 0001918 233.3017 126.8054 15.41066153103795
FLOCK 4BE-6             
1 60516U 24149BA  26177.47744845  .00015313  00000+0  38789-3 0  9994
2 60516  97.3794 261.1807 0002481 240.2295 119.8704 15.39817835103704
FLOCK 4BE-14            
1 60517U 24149BB  26177.77717468  .00017167  00000+0  41400-3 0  9992
2 60517  97.3703 261.6280 0003525 242.7387 117.3501 15.41285165103801
FLOCK 4BE-1             
1 60518U 24149BC  26177.78307296  .00017439  00000+0  39855-3 0  9991
2 60518  97.3785 262.9456 0003370 241.1282 118.9628 15.42901838103851
FLOCK 4BE-28            
1 60519U 24149BD  26177.78290016  .00018901  00000+0  39919-3 0  9999
2 60519  97.3754 263.6997 0003407 234.7575 125.3356 15.45228956103924
IPERDRONE.0             
1 60520U 24149BE  26177.81953167  .00083466  00000+0  74749-3 0  9996
2 60520  97.3778 271.5151 0004097 204.1116 155.9954 15.68067603104424
TRANSPORTER-11 OBJECT BF
1 60521U 24149BF  26177.77633395  .00326995  41364-4  11061-2 0  9997
2 60521  97.3749 274.4911 0007124 228.4543 131.6119 15.89888290104606
CONNECTA IOT-2          
1 60522U 24149BG  26177.76621391  .00004652  00000+0  19468-3 0  9990
2 60522  97.3842 255.7666 0004854 296.1112  63.9625 15.24049904103351
CONNECTA IOT-4          
1 60524U 24149BJ  26177.74475454  .00018930  00000+0  43834-3 0  9995
2 60524  97.3804 262.2290 0004511 240.9049 119.1747 15.42486549103802
ORESAT0.5               
1 60525U 24149BK  26177.70229213  .00019109  00000+0  40081-3 0  9992
2 60525  97.3725 263.8492 0004663 229.1827 130.9018 15.45424418103944
DEIMOS                  
1 60526U 24149BL  26177.80461451  .00019869  00000+0  42913-3 0  9995
2 60526  97.3788 264.0890 0004493 237.0823 122.9993 15.44552015103930
CUAVA-2                 
1 60527U 24149BM  26177.72349515  .00011885  00000+0  33759-3 0  9991
2 60527  97.3733 259.2594 0005393 251.4087 108.6571 15.36324305103630
ERNST                   
1 60528U 24149BN  26177.79069209  .00014563  00000+0  37343-3 0  9997
2 60528  97.3814 261.5830 0004583 251.6141 108.4606 15.39448371103756
TORO                    
1 60530U 24149BQ  26177.73486929  .00001672  00000+0  15240-3 0  9995
2 60530  97.6781 252.2246 0001115  92.2808 267.8542 14.96451792101389
HYPSO-2                 
1 60531U 24149BR  26177.94785952  .00003048  00000+0  25746-3 0  9998
2 60531  97.6813 254.0652 0000986 125.9256 234.2059 14.98832232101513
LEMU NGE                
1 60532U 24149BS  26177.95731627  .00002555  00000+0  23887-3 0  9996
2 60532  97.6842 252.7194 0001585  58.0672 302.0703 14.94991775101419
LEMUR-2-STELLA          
1 60533U 24149BT  26177.94314751  .00011392  00000+0  66668-3 0  9994
2 60533  97.6742 260.4413 0001432  98.3665 261.7728 15.12006788101970
SATELIOT_2              
1 60534U 24149BU  26177.72240406  .00001315  00000+0  12113-3 0  9996
2 60534  97.6829 252.5048 0001753  84.4222 275.7199 14.96392763101399
NIGHTJAR                
1 60535U 24149BV  26177.93782339  .00003221  00000+0  27023-3 0  9990
2 60535  97.6831 254.5079 0000911 113.2448 246.8871 14.99063398144334
LEMUR-2-MARHISYAM       
1 60536U 24149BW  26177.79463563  .00010938  00000+0  65040-3 0  9994
2 60536  97.6882 260.7509 0003222 100.6886 259.4707 15.11438033101936
SATELIOT_4              
1 60537U 24149BX  26177.73129843  .00001513  00000+0  13757-3 0  9996
2 60537  97.6732 252.0344 0002303  37.4357 322.7025 14.96694908101407
PICO-02A021             
1 60538U 24149BY  26177.95106301  .00005504  00000+0  40966-3 0  9991
2 60538  97.6768 256.6988 0004245   5.6561 354.4712 15.03345175101203
ICEYE-X43               
1 60539U 24149BZ  26177.77036060  .00003978  00000+0  32709-3 0  9995
2 60539  97.6817 254.6046 0008098  56.9363 303.2637 14.99684406101554
HAWK-10A                
1 60540U 24149CA  26177.93159514  .00001250  00000+0  11494-3 0  9994
2 60540  97.6890 253.6758 0004295  53.7986 306.3632 14.96539586101449
