OBJECT_NAME,OBJECT_ID,EPOCH,MEAN_MOTION,ECCENTRICITY,INCLINATION,RA_OF_ASC_NODE,ARG_OF_PERICENTER,MEAN_ANOMALY,EPHEMERIS_TYPE,CLASSIFICATION_TYPE,NORAD_CAT_ID,ELEMENT_SET_NO,REV_AT_EPOCH,BSTAR,MEAN_MOTION_DOT,MEAN_MOTION_DDOT
EAGLEEYE,2024-149AS,2026-06-26T18:48:48.198816,15.72722206,.00048641,97.3722,271.6628,216.5781,143.5152,0,U,60508,999,10444,.78996976E-3,.107308E-2,0
FLOCK 4BE-29,2024-149AT,2026-06-26T18:28:48.153792,15.44444112,.000189,97.3818,263.7885,231.0789,129.0292,0,U,60509,999,10389,.36600943E-3,.1686E-3,0
TRANSPORTER-11 OBJECT AU,2024-149AU,2026-06-26T11:27:46.871712,15.40467866,.000257,97.3734,261.2729,237.7489,122.3508,0,U,60510,999,10374,.37538E-3,.15137E-3,0
FLOCK 4BE-2,2024-149AV,2026-06-26T17:21:22.154976,15.53741263,.00041687,97.3837,265.2964,221.5662,138.5275,0,U,60511,999,10398,.91599879E-3,.58926E-3,0
FLOCK 4BE-13,2024-149AW,2026-06-26T18:14:34.201248,15.42134631,.00035617,97.3725,262.2720,216.8541,143.2462,0,U,60512,999,10384,.32272057E-3,.13741E-3,0
FLOCK 4BE-27,2024-149AX,2026-06-26T18:43:30.593280,15.34607514,.00023797,97.3830,259.6362,259.6186,100.4789,0,U,60513,999,10361,.28642211E-3,.9527E-4,0
FLOCK 4BE-9,2024-149AY,2026-06-26T18:22:59.379456,15.41066153,.00019186,97.3797,262.1314,233.3017,126.8054,0,U,60514,999,10379,.37398785E-3,.15382E-3,0
FLOCK 4BE-6,2024-149BA,2026-06-26T11:27:31.546080,15.39817835,.0002481,97.3794,261.1807,240.2295,119.8704,0,U,60516,999,10370,.38789E-3,.15313E-3,0
FLOCK 4BE-14,2024-149BB,2026-06-26T18:39:07.892352,15.41285165,.00035256,97.3703,261.6280,242.7387,117.3501,0,U,60517,999,10380,.41400243E-3,.17167E-3,0
FLOCK 4BE-1,2024-149BC,2026-06-26T18:47:37.503744,15.42901838,.00033702,97.3785,262.9456,241.1282,118.9628,0,U,60518,999,10385,.39855101E-3,.17439E-3,0
FLOCK 4BE-28,2024-149BD,2026-06-26T18:47:22.573824,15.45228956,.00034075,97.3754,263.6997,234.7575,125.3356,0,U,60519,999,10392,.39919151E-3,.18901E-3,0
IPERDRONE.0,2024-149BE,2026-06-26T19:40:07.536288,15.68067603,.00040974,97.3778,271.5151,204.1116,155.9954,0,U,60520,999,10442,.74749301E-3,.83466E-3,0
TRANSPORTER-11 OBJECT BF,2024-149BF,2026-06-26T18:37:55.253280,15.89888290,.00071243,97.3749,274.4911,228.4543,131.6119,0,U,60521,999,10460,.11060902E-2,.326995E-2,.41363626E-4
CONNECTA IOT-2,2024-149BG,2026-06-26T18:23:20.881824,15.24049904,.00048541,97.3842,255.7666,296.1112,63.9625,0,U,60522,999,10335,.19468379E-3,.4652E-4,0
CONNECTA IOT-4,2024-149BJ,2026-06-26T17:52:26.792256,15.42486549,.00045112,97.3804,262.2290,240.9049,119.1747,0,U,60524,999,10380,.43833621E-3,.1893E-3,0
ORESAT0.5,2024-149BK,2026-06-26T16:51:18.040032,15.45424418,.00046631,97.3725,263.8492,229.1827,130.9018,0,U,60525,999,10394,.40080702E-3,.19109E-3,0
DEIMOS,2024-149BL,2026-06-26T19:18:38.693664,15.44552015,.00044931,97.3788,264.0890,237.0823,122.9993,0,U,60526,999,10393,.4291315E-3,.19869E-3,0
CUAVA-2,2024-149BM,2026-06-26T17:21:49.980960,15.36324305,.00053938,97.3733,259.2594,251.4087,108.6571,0,U,60527,999,10363,.33758898E-3,.11885E-3,0
ERNST,2024-149BN,2026-06-26T18:58:35.796576,15.39448371,.00045831,97.3814,261.5830,251.6141,108.4606,0,U,60528,999,10375,.37343094E-3,.14563E-3,0
TORO,2024-149BQ,2026-06-26T17:38:12.706656,14.96451792,.00011153,97.6781,252.2246,92.2808,267.8542,0,U,60530,999,10138,.15240347E-3,.1672E-4,0
HYPSO-2,2024-149BR,2026-06-26T22:44:55.062528,14.98832232,.0000986,97.6813,254.0652,125.9256,234.2059,0,U,60531,999,10151,.25746387E-3,.3048E-4,0
LEMU NGE,2024-149BS,2026-06-26T22:58:32.125728,14.94991775,.00015856,97.6842,252.7194,58.0672,302.0703,0,U,60532,999,10141,.23887299E-3,.2555E-4,0
LEMUR-2-STELLA,2024-149BT,2026-06-26T22:38:07.944864,15.12006788,.00014325,97.6742,260.4413,98.3665,261.7728,0,U,60533,999,10197,.6666791E-3,.11392E-3,0
SATELIOT_2,2024-149BU,2026-06-26T17:20:15.710784,14.96392763,.00017531,97.6829,252.5048,84.4222,275.7199,0,U,60534,999,10139,.12112746E-3,.1315E-4,0
NIGHTJAR,2024-149BV,2026-06-26T22:30:27.940896,14.99063398,.0000911,97.6831,254.5079,113.2448,246.8871,0,U,60535,999,14433,.27023225E-3,.3221E-4,0
LEMUR-2-MARHISYAM,2024-149BW,2026-06-26T19:04:16.518432,15.11438033,.00032226,97.6882,260.7509,100.6886,259.4707,0,U,60536,999,10193,.65039667E-3,.10938E-3,0
SATELIOT_4,2024-149BX,2026-06-26T17:33:04.184352,14.96694908,.00023032,97.6732,252.0344,37.4357,322.7025,0,U,60537,999,10140,.13756925E-3,.1513E-4,0
PICO-02A021,2024-149BY,2026-06-26T22:49:31.844064,15.03345175,.00042457,97.6768,256.6988,5.6561,354.4712,0,U,60538,999,10120,.4096649E-3,.5504E-4,0
ICEYE-X43,2024-149BZ,2026-06-26T18:29:19.155840,14.99684406,.00080988,97.6817,254.6046,56.9363,303.2637,0,U,60539,999,10155,.32709427E-3,.3978E-4,0
HAWK-10A,2024-149CA,2026-06-26T22:21:29.820096,14.96539586,.00042952,97.6890,253.6758,53.7986,306.3632,0,U,60540,999,10144,.11493905E-3,.125E-4,0
